NORAD_CAT_ID,OBJECT_NAME,OBJECT_TYPE,EPOCH,MEAN_MOTION,ECCENTRICITY,INCLINATION,RA_OF_ASC_NODE,ARG_OF_PERICENTER,MEAN_ANOMALY,BSTAR,MEAN_MOTION_DOT,MEAN_MOTION_DDOT,TLE_LINE0,TLE_LINE1,TLE_LINE2,SEMIMAJOR_AXIS,PERIOD,APOGEE,PERIGEE,DECAYED
52126.0,STARLINK-3732,PAYLOAD,2023-05-28 21:44:12,15.08854168,8.66e-05,53.2166,309.1524,80.9972,279.1118,0.00026397,3.917e-05,0.0,0 STARLINK-3732,1 52126U 22029AQ  23148.90570254  .00003917  00000-0  26397-3 0  9991,2 52126  53.2166 309.1524 0000866  80.9972 279.1118 15.08854168 67570,6917.837,95.437,540.301,539.103,0.0
52126.0,STARLINK-3732,PAYLOAD,2023-05-29 10:27:18,15.08841572,9.06e-05,53.2147,306.7798,56.1973,303.9105,0.00013633,1.883e-05,0.0,0 STARLINK-3732,1 52126U 22029AQ  23149.43562916  .00001883  00000-0  13633-3 0  9995,2 52126  53.2147 306.7798 0000906  56.1973 303.9105 15.08841572 67652,6917.876,95.437,540.367,539.114,0.0
52126.0,STARLINK-3732,PAYLOAD,2023-05-29 16:48:50,15.08840863,7.94e-05,53.2163,305.5845,88.9721,271.1362,0.00011176,1.491e-05,0.0,0 STARLINK-3732,1 52126U 22029AQ  23149.70058926  .00001491  00000-0  11176-3 0  9991,2 52126  53.2163 305.5845 0000794  88.9721 271.1362 15.08840863 67696,6917.878,95.438,540.292,539.193,0.0
52126.0,STARLINK-3732,PAYLOAD,2023-05-30 10:18:05,15.08840243,8.61e-05,53.2159,302.3129,89.8755,270.2336,3.6344e-05,2.91e-06,0.0,0 STARLINK-3732,1 52126U 22029AQ  23150.42922972  .00000291  00000-0  36344-4 0  9995,2 52126  53.2159 302.3129 0000861  89.8755 270.2336 15.08840243 67809,6917.88,95.438,540.34,539.149,0.0
52126.0,STARLINK-3732,PAYLOAD,2023-05-30 15:04:14,15.08841145,8.37e-05,53.2163,301.4214,87.5723,272.5365,5.6247e-05,6.08e-06,0.0,0 STARLINK-3732,1 52126U 22029AQ  23150.62794956  .00000608  00000-0  56247-4 0  9992,2 52126  53.2163 301.4214 0000837  87.5723 272.5365 15.08841145 67834,6917.877,95.437,540.321,539.163,0.0
52126.0,STARLINK-3732,PAYLOAD,2023-05-30 19:50:23,15.08847775,8.67e-05,53.2172,300.5289,92.9671,267.142,9.6361e-05,1.247e-05,0.0,0 STARLINK-3732,1 52126U 22029AQ  23150.82666589  .00001247  00000-0  96361-4 0  9995,2 52126  53.2172 300.5289 0000867  92.9671 267.1420 15.08847775 67861,6917.857,95.437,540.321,539.122,0.0
52126.0,STARLINK-3732,PAYLOAD,2023-05-31 13:19:38,15.08841841,9.36e-05,53.217,297.2567,103.0928,257.0169,0.00011947,1.614e-05,0.0,0 STARLINK-3732,1 52126U 22029AQ  23151.55530870  .00001614  00000-0  11947-3 0  9993,2 52126  53.2170 297.2567 0000936 103.0928 257.0169 15.08841841 67974,6917.875,95.437,540.387,539.092,0.0
52126.0,STARLINK-3732,PAYLOAD,2023-05-31 16:30:24,15.08844989,8.3e-05,53.2168,296.6621,91.2584,268.8503,0.00016801,2.388e-05,0.0,0 STARLINK-3732,1 52126U 22029AQ  23151.68778695  .00002388  00000-0  16801-3 0  9999,2 52126  53.2168 296.6621 0000830  91.2584 268.8503 15.08844989 67994,6917.865,95.437,540.304,539.156,0.0
52126.0,STARLINK-3732,PAYLOAD,2023-06-01 09:59:39,15.08837939,7.84e-05,53.217,293.3935,87.6466,272.4616,6.4493e-05,7.39e-06,0.0,0 STARLINK-3732,1 52126U 22029AQ  23152.41643048  .00000739  00000-0  64493-4 0  9993,2 52126  53.2170 293.3935 0000784  87.6466 272.4616 15.08837939 68102,6917.887,95.438,540.294,539.209,0.0
52126.0,STARLINK-3732,PAYLOAD,2023-06-02 13:01:13,15.08829368,7.18e-05,53.2159,288.3385,84.0643,276.0431,-0.00016015,-2.835e-05,0.0,0 STARLINK-3732,1 52126U 22029AQ  23153.54251619 -.00002835  00000-0 -16015-3 0  9994,2 52126  53.2159 288.3385 0000718  84.0643 276.0431 15.08829368 68277,6917.913,95.438,540.275,539.281,0.0
52126.0,STARLINK-3732,PAYLOAD,2023-06-02 16:11:59,15.08834134,7.05e-05,53.2171,287.7436,88.2013,271.906,-4.2559e-06,-3.55e-06,0.0,0 STARLINK-3732,1 52126U 22029AQ  23153.67499768 -.00000355  00000-0 -42559-5 0  9996,2 52126  53.2171 287.7436 0000705  88.2013 271.9060 15.08834134 68295,6917.898,95.438,540.251,539.276,0.0
52126.0,STARLINK-3732,PAYLOAD,2023-06-02 19:22:45,15.08837225,7.48e-05,53.2171,287.1479,87.6487,272.4591,1.8879e-05,1.3e-07,0.0,0 STARLINK-3732,1 52126U 22029AQ  23153.80747549  .00000013  00000-0  18879-4 0  9990,2 52126  53.2171 287.1479 0000748  87.6487 272.4591 15.08837225 68313,6917.889,95.438,540.271,539.236,0.0
52126.0,STARLINK-3732,PAYLOAD,2023-06-03 14:27:23,15.08837987,6.71e-05,53.217,283.5801,90.7773,269.3296,4.6661e-05,4.55e-06,0.0,0 STARLINK-3732,1 52126U 22029AQ  23154.60235917  .00000455  00000-0  46661-4 0  9990,2 52126  53.2170 283.5801 0000671  90.7773 269.3296 15.08837987 68434,6917.887,95.438,540.216,539.287,0.0
52126.0,STARLINK-3732,PAYLOAD,2023-06-03 16:02:46,15.08837946,7.08e-05,53.2164,283.2823,83.1055,277.0017,5.8308e-05,6.4e-06,0.0,0 STARLINK-3732,1 52126U 22029AQ  23154.66859668  .00000640  00000-0  58308-4 0  9998,2 52126  53.2164 283.2823 0000708  83.1055 277.0017 15.08837946 68441,6917.887,95.438,540.241,539.262,0.0
52126.0,STARLINK-3732,PAYLOAD,2023-06-04 01:35:05,15.08839876,7.01e-05,53.2165,281.4981,79.5398,280.5673,0.00010351,1.36e-05,0.0,0 STARLINK-3732,1 52126U 22029AQ  23155.06603726  .00001360  00000-0  10351-3 0  9990,2 52126  53.2165 281.4981 0000701  79.5398 280.5673 15.08839876 68507,6917.881,95.438,540.231,539.261,0.0
52126.0,STARLINK-3732,PAYLOAD,2023-06-04 14:18:10,15.08840953,7.81e-05,53.2166,279.118,73.2137,286.8941,0.00021577,3.148e-05,0.0,0 STARLINK-3732,1 52126U 22029AQ  23155.59595926  .00003148  00000-0  21577-3 0  9998,2 52126  53.2166 279.1180 0000781  73.2137 286.8941 15.08840953 68586,6917.877,95.437,540.283,539.202,0.0
52126.0,STARLINK-3732,PAYLOAD,2023-06-04 17:28:56,15.08847266,8.16e-05,53.2167,278.5231,72.9324,287.1758,0.00030297,4.538e-05,0.0,0 STARLINK-3732,1 52126U 22029AQ  23155.72843661  .00004538  00000-0  30297-3 0  9998,2 52126  53.2167 278.5231 0000816  72.9324 287.1758 15.08847266 68607,6917.858,95.437,540.288,539.159,0.0
52126.0,STARLINK-3732,PAYLOAD,2023-06-05 07:47:25,15.08843464,7.96e-05,53.2172,275.8485,72.4346,287.6733,0.00022368,3.274e-05,0.0,0 STARLINK-3732,1 52126U 22029AQ  23156.32459840  .00003274  00000-0  22368-3 0  9993,2 52126  53.2172 275.8485 0000796  72.4346 287.6733 15.08843464 68693,6917.87,95.437,540.285,539.184,0.0
52126.0,STARLINK-3732,PAYLOAD,2023-06-05 14:08:57,15.08847997,6.95e-05,53.216,274.6584,77.2385,282.8685,0.00023066,3.386e-05,0.0,0 STARLINK-3732,1 52126U 22029AQ  23156.58955528  .00003386  00000-0  23066-3 0  9995,2 52126  53.2160 274.6584 0000695  77.2385 282.8685 15.08847997 68734,6917.856,95.437,540.202,539.24,0.0
52126.0,STARLINK-3732,PAYLOAD,2023-06-05 17:19:43,15.08851524,7.03e-05,53.2161,274.0627,85.1186,274.9887,0.00022154,3.241e-05,0.0,0 STARLINK-3732,1 52126U 22029AQ  23156.72203253  .00003241  00000-0  22154-3 0  9999,2 52126  53.2161 274.0627 0000703  85.1186 274.9887 15.08851524 68753,6917.845,95.437,540.196,539.224,0.0
52126.0,STARLINK-3732,PAYLOAD,2023-06-06 12:24:21,15.08843296,9.88e-05,53.2165,270.4949,85.0917,275.0188,8.2008e-05,1.018e-05,0.0,0 STARLINK-3732,1 52126U 22029AQ  23157.51691604  .00001018  00000-0  82008-4 0  9993,2 52126  53.2165 270.4949 0000988  85.0917 275.0188 15.08843296 68876,6917.87,95.437,540.419,539.052,0.0
52126.0,STARLINK-3732,PAYLOAD,2023-06-06 17:10:30,15.08847318,9.41e-05,53.2159,269.6027,88.173,271.937,8.8291e-05,1.118e-05,0.0,0 STARLINK-3732,1 52126U 22029AQ  23157.71563401  .00001118  00000-0  88291-4 0  9999,2 52126  53.2159 269.6027 0000941  88.1730 271.9370 15.08847318 68903,6917.858,95.437,540.374,539.072,0.0
52126.0,STARLINK-3732,PAYLOAD,2023-06-07 17:01:18,15.0883952,0.0001001,53.2161,265.1423,87.8009,272.3097,1.8649e-05,9e-08,0.0,0 STARLINK-3732,1 52126U 22029AQ  23158.70923866  .00000009  00000-0  18649-4 0  9992,2 52126  53.2161 265.1423 0001001  87.8009 272.3097 15.08839520 69054,6917.882,95.438,540.439,539.054,0.0
52126.0,STARLINK-3732,PAYLOAD,2023-06-07 18:36:41,15.08842772,8.57e-05,53.2165,264.8453,80.3252,279.7837,6.6947e-05,7.78e-06,0.0,0 STARLINK-3732,1 52126U 22029AQ  23158.77547667  .00000778  00000-0  66947-4 0  9997,2 52126  53.2165 264.8453 0000857  80.3252 279.7837 15.08842772 69060,6917.872,95.437,540.33,539.144,0.0
52126.0,STARLINK-3732,PAYLOAD,2023-06-08 12:05:56,15.0883802,9.25e-05,53.2166,261.5751,61.7039,298.4046,0.00010056,1.313e-05,0.0,0 STARLINK-3732,1 52126U 22029AQ  23159.50412083  .00001313  00000-0  10056-3 0  9997,2 52126  53.2166 261.5751 0000925  61.7039 298.4046 15.08838020 69171,6917.886,95.438,540.391,539.112,0.0
52126.0,STARLINK-3732,PAYLOAD,2023-06-08 13:41:19,15.08842796,9.56e-05,53.2164,261.2775,75.2266,284.8832,0.00013728,1.898e-05,0.0,0 STARLINK-3732,1 52126U 22029AQ  23159.57035893  .00001898  00000-0  13728-3 0  9991,2 52126  53.2164 261.2775 0000956  75.2266 284.8832 15.08842796 69186,6917.872,95.437,540.398,539.075,0.0
52126.0,STARLINK-3732,PAYLOAD,2023-06-08 18:27:28,15.08846933,8.25e-05,53.2166,260.3836,93.405,266.7036,0.00017073,2.431e-05,0.0,0 STARLINK-3732,1 52126U 22029AQ  23159.76907511  .00002431  00000-0  17073-3 0  9998,2 52126  53.2166 260.3836 0000825  93.4050 266.7036 15.08846933 69210,6917.859,95.437,540.295,539.153,0.0
52126.0,STARLINK-3732,PAYLOAD,2023-06-09 07:10:33,15.08833503,6.69e-05,53.217,258.0088,29.7046,330.3984,6.4283e-05,7.35e-06,0.0,0 STARLINK-3732,1 52126U 22029AQ  23160.29900247  .00000735  00000-0  64283-4 0  9998,2 52126  53.2170 258.0088 0000669  29.7046 330.3984 15.08833503 69298,6917.9,95.438,540.228,539.302,0.0
52126.0,STARLINK-3732,PAYLOAD,2023-06-09 13:32:06,15.08840154,6.17e-05,53.2166,256.8194,52.5182,307.5866,0.00013392,1.844e-05,0.0,0 STARLINK-3732,1 52126U 22029AQ  23160.56395947  .00001844  00000-0  13392-3 0  9999,2 52126  53.2166 256.8194 0000617  52.5182 307.5866 15.08840154 69335,6917.88,95.438,540.172,539.318,0.0
52126.0,STARLINK-3732,PAYLOAD,2023-06-10 13:22:53,15.08840587,8.88e-05,53.2155,252.3591,106.6207,253.4883,-1.056e-05,-4.56e-06,0.0,0 STARLINK-3732,1 52126U 22029AQ  23161.55756032 -.00000456  00000-0 -10560-4 0  9990,2 52126  53.2155 252.3591 0000888 106.6207 253.4883 15.08840587 69488,6917.879,95.438,540.358,539.129,0.0
